KUIPER-00156            
1 65775U 25217P   26063.33344585  .00007718  00000+0  10394-2 0  9990
2 65775  51.9030  49.3068 0000712  94.7866 265.3178 14.79966243 24324
KUIPER-00158            
1 65776U 25217Q   26063.20198480  .00007727  00000+0  10282-2 0  9994
2 65776  51.8968  69.7524 0001057  41.7557 318.3486 14.80474552 24037
KUIPER-00163            
1 65777U 25217R   26063.58335648  .00086017  00000+0  81989-2 0  9996
2 65777  51.8965  70.0083 0002149  69.6406 108.6115 14.92575009  5406
KUIPER-00165            
1 65778U 25217S   26063.39019106  .00005273  00000+0  71895-3 0  9995
2 65778  51.9012  59.0309 0000894 110.3797 249.7261 14.80003991 24190
KUIPER-00166            
1 65779U 25217T   26063.36998563  .00008589  00000+0  11529-2 0  9996
2 65779  51.9027  46.6429 0000779 112.6031 247.5013 14.79982865 24364
KUIPER-00167            
1 65780U 25217U   26063.31195715  .00011776  00000+0  15692-2 0  9998
2 65780  51.8970  69.3476 0000600  47.1432 312.9580 14.79981066 24049
KUIPER-00168            
1 65781U 25217V   26063.39828507  .00000196  00000+0  54801-4 0  9990
2 65781  51.9019  51.4983 0000890  86.2031 273.9033 14.79921368 24307
KUIPER-00169            
1 65782U 25217W   26063.39350035  .00006700  00000+0  90985-3 0  9996
2 65782  51.9012  56.5266 0000752 101.9496 258.1550 14.79797620 24231
KUIPER-00170            
1 65783U 25217X   26063.18454016  .00005994  00000+0  81460-3 0  9990
2 65783  51.8986  62.4276 0000830  89.0314 271.0744 14.79932354 24133
KUIPER-00172            
1 65785U 25217Z   26063.58335648 -.01663121  00000+0 -18958+0 0  9998
2 65785  51.8976  41.5055 0002869 293.4387 254.6925 14.89421882  2956
KUIPER-00173            
1 65786U 25217AA  26063.22489443  .00004389  00000+0  57215-3 0  9998
2 65786  51.9015  56.5807 0001279 132.7696 227.3375 14.82266183 24218
KUIPER-00174            
1 65787U 25217AB  26063.36454667  .00009217  00000+0  12366-2 0  9996
2 65787  51.9037  51.6721 0001143  65.4548 294.6533 14.79924400 24292
KUIPER-00176            
1 65788U 25217AC  26063.41570963 -.00000645  00000+0 -55603-4 0  9992
2 65788  51.9003  66.4199 0001066  62.1509 297.9562 14.79950039 24097
KUIPER-00101            
1 65947U 25228A   26063.29292593  .00005605  00000+0  76357-3 0  9994
2 65947  51.9013  24.4415 0000588  99.1192 260.9837 14.79936650 22430
KUIPER-00113            
1 65948U 25228B   26063.26451944  .00008229  00000+0  11060-2 0  9993
2 65948  51.8996  19.5839 0000844 100.4393 259.6665 14.79974571 22493
KUIPER-00117            
1 65949U 25228C   26063.29563498  .00008705  00000+0  11689-2 0  9991
2 65949  51.8995  21.9491 0000941  84.5381 275.5689 14.79950789 22466
KUIPER-00121            
1 65950U 25228D   26063.06461622  .00007490  00000+0  10102-2 0  9993
2 65950  51.9010  17.9658 0001319 100.2403 259.8708 14.79941915 22501
